{
  "type": "FeatureCollection",
  "features": [
    {
      "type": "Feature",
      "properties": {
        "norad_id": 19071,
        "name": "OSCAR 32",
        "group": "nnss",
        "lat": 24.678845905792357,
        "lon": 16.24729117973245,
        "alt_km": 1280.079193005362,
        "timestamp": "2025-12-08T13:49:32.061110+00:00",
        "meta_object_name": "OSCAR 32",
        "meta_object_id": "1988-033B",
        "meta_epoch": "2025-12-08T03:10:03.838368",
        "meta_mean_motion": 13.27953113,
        "meta_eccentricity": 0.01879768,
        "meta_inclination": 90.3221,
        "meta_ra_of_asc_node": 16.3815,
        "meta_arg_of_pericenter": 179.5931,
        "meta_mean_anomaly": 244.4243,
        "meta_ephemeris_type": 0,
        "meta_classification_type": "U",
        "meta_norad_cat_id": 19071,
        "meta_element_set_no": 999,
        "meta_rev_at_epoch": 82204,
        "meta_bstar": 0.00017015886,
        "meta_mean_motion_dot": 9.3e-07,
        "meta_mean_motion_ddot": 0,
        "tle_line1": "1 19071U 88033B   25342.13198887  .00000093  00000+0  17016-3 0  9990",
        "tle_line2": "2 19071  90.3221  16.3815 0187976 179.5931 244.4243 13.27953113822048"
      },
      "geometry": {
        "type": "Point",
        "coordinates": [
          16.24729117973245,
          24.678845905792357
        ]
      }
    },
    {
      "type": "Feature",
      "properties": {
        "norad_id": 19223,
        "name": "NOVA 2",
        "group": "nnss",
        "lat": -62.32739653195516,
        "lon": 78.25292910759627,
        "alt_km": 1180.8999459215192,
        "timestamp": "2025-12-08T13:49:32.061120+00:00",
        "meta_object_name": "NOVA 2",
        "meta_object_id": "1988-052A",
        "meta_epoch": "2025-12-08T06:54:51.618816",
        "meta_mean_motion": 13.22935188,
        "meta_eccentricity": 0.00309565,
        "meta_inclination": 89.9871,
        "meta_ra_of_asc_node": 78.2779,
        "meta_arg_of_pericenter": 28.9755,
        "meta_mean_anomaly": 338.4359,
        "meta_ephemeris_type": 0,
        "meta_classification_type": "U",
        "meta_norad_cat_id": 19223,
        "meta_element_set_no": 999,
        "meta_rev_at_epoch": 80889,
        "meta_bstar": 0.00028573746,
        "meta_mean_motion_dot": 1.29e-06,
        "meta_mean_motion_ddot": 0,
        "tle_line1": "1 19223U 88052A   25342.28809744  .00000129  00000+0  28574-3 0  9998",
        "tle_line2": "2 19223  89.9871  78.2779 0030956  28.9755 338.4359 13.22935188808890"
      },
      "geometry": {
        "type": "Point",
        "coordinates": [
          78.25292910759627,
          -62.32739653195516
        ]
      }
    },
    {
      "type": "Feature",
      "properties": {
        "norad_id": 19419,
        "name": "OSCAR 25",
        "group": "nnss",
        "lat": 79.5371702634025,
        "lon": 20.040887233833853,
        "alt_km": 1162.7658667815294,
        "timestamp": "2025-12-08T13:49:32.061130+00:00",
        "meta_object_name": "OSCAR 25",
        "meta_object_id": "1988-074A",
        "meta_epoch": "2025-12-08T08:06:55.009152",
        "meta_mean_motion": 13.4262217,
        "meta_eccentricity": 0.00942963,
        "meta_inclination": 90.035,
        "meta_ra_of_asc_node": 20.2297,
        "meta_arg_of_pericenter": 258.6219,
        "meta_mean_anomaly": 111.629,
        "meta_ephemeris_type": 0,
        "meta_classification_type": "U",
        "meta_norad_cat_id": 19419,
        "meta_element_set_no": 999,
        "meta_rev_at_epoch": 82581,
        "meta_bstar": 0.00026924969,
        "meta_mean_motion_dot": 1.65e-06,
        "meta_mean_motion_ddot": 0,
        "tle_line1": "1 19419U 88074A   25342.33813668  .00000165  00000+0  26925-3 0  9993",
        "tle_line2": "2 19419  90.0350  20.2297 0094296 258.6219 111.6290 13.42622170825810"
      },
      "geometry": {
        "type": "Point",
        "coordinates": [
          20.040887233833853,
          79.5371702634025
        ]
      }
    },
    {
      "type": "Feature",
      "properties": {
        "norad_id": 19420,
        "name": "OSCAR 31",
        "group": "nnss",
        "lat": -35.1514807578676,
        "lon": 20.60561885901883,
        "alt_km": 1084.9939761544247,
        "timestamp": "2025-12-08T13:49:32.061140+00:00",
        "meta_object_name": "OSCAR 31",
        "meta_object_id": "1988-074B",
        "meta_epoch": "2025-12-08T03:34:06.329568",
        "meta_mean_motion": 13.42583508,
        "meta_eccentricity": 0.00925642,
        "meta_inclination": 90.0367,
        "meta_ra_of_asc_node": 20.5782,
        "meta_arg_of_pericenter": 253.2781,
        "meta_mean_anomaly": 166.2161,
        "meta_ephemeris_type": 0,
        "meta_classification_type": "U",
        "meta_norad_cat_id": 19420,
        "meta_element_set_no": 999,
        "meta_rev_at_epoch": 82589,
        "meta_bstar": 0.00019409151,
        "meta_mean_motion_dot": 1.21e-06,
        "meta_mean_motion_ddot": 0,
        "tle_line1": "1 19420U 88074B   25342.14868437  .00000121  00000+0  19409-3 0  9999",
        "tle_line2": "2 19420  90.0367  20.5782 0092564 253.2781 166.2161 13.42583508825895"
      },
      "geometry": {
        "type": "Point",
        "coordinates": [
          20.60561885901883,
          -35.1514807578676
        ]
      }
    }
  ]
}